{
    "links": {
        "self": "http://www.neowsapp.com/rest/v1/neo/3843083?api_key=iIulBulltgU6a56xZRHN4H3l9WmuAYTsLGpBGhQ2"
    },
    "id": "3843083",
    "neo_reference_id": "3843083",
    "name": "(2019 MG3)",
    "designation": "2019 MG3",
    "nasa_jpl_url": "http://ssd.jpl.nasa.gov/sbdb.cgi?sstr=3843083",
    "absolute_magnitude_h": 23.3,
    "estimated_diameter": {
        "kilometers": {
            "estimated_diameter_min": 0.058150704,
            "estimated_diameter_max": 0.130028927
        },
        "meters": {
            "estimated_diameter_min": 58.1507039646,
            "estimated_diameter_max": 130.0289270043
        },
        "miles": {
            "estimated_diameter_min": 0.0361331611,
            "estimated_diameter_max": 0.0807962044
        },
        "feet": {
            "estimated_diameter_min": 190.7831555951,
            "estimated_diameter_max": 426.6041048727
        }
    },
    "is_potentially_hazardous_asteroid": false,
    "close_approach_data": [
        {
            "close_approach_date": "1982-07-24",
            "close_approach_date_full": "1982-Jul-24 15:25",
            "epoch_date_close_approach": 396372300000,
            "relative_velocity": {
                "kilometers_per_second": "7.3488371415",
                "kilometers_per_hour": "26455.8137094869",
                "miles_per_hour": "16438.6138018753"
            },
            "miss_distance": {
                "astronomical": "0.170725007",
                "lunar": "66.412027723",
                "kilometers": "25540097.40293509",
                "miles": "15869880.630040642"
            },
            "orbiting_body": "Earth"
        },
        {
            "close_approach_date": "2019-08-02",
            "close_approach_date_full": "2019-Aug-02 08:15",
            "epoch_date_close_approach": 1564733700000,
            "relative_velocity": {
                "kilometers_per_second": "7.2489428881",
                "kilometers_per_hour": "26096.1943969917",
                "miles_per_hour": "16215.1603462863"
            },
            "miss_distance": {
                "astronomical": "0.1610802831",
                "lunar": "62.6602301259",
                "kilometers": "24097267.250756997",
                "miles": "14973347.5462686786"
            },
            "orbiting_body": "Earth"
        },
        {
            "close_approach_date": "2037-11-29",
            "close_approach_date_full": "2037-Nov-29 00:11",
            "epoch_date_close_approach": 2143066260000,
            "relative_velocity": {
                "kilometers_per_second": "4.1799731591",
                "kilometers_per_hour": "15047.9033726624",
                "miles_per_hour": "9350.1819595301"
            },
            "miss_distance": {
                "astronomical": "1.6730460657",
                "lunar": "650.8149195573",
                "kilometers": "250284127.840600059",
                "miles": "155519345.5122724542"
            },
            "orbiting_body": "Juptr"
        },
        {
            "close_approach_date": "2050-02-23",
            "close_approach_date_full": "2050-Feb-23 04:01",
            "epoch_date_close_approach": 2529201660000,
            "relative_velocity": {
                "kilometers_per_second": "3.4187031384",
                "kilometers_per_hour": "12307.3312982707",
                "miles_per_hour": "7647.297050306"
            },
            "miss_distance": {
                "astronomical": "1.3255505722",
                "lunar": "515.6391725858",
                "kilometers": "198299542.178401214",
                "miles": "123217621.8326121932"
            },
            "orbiting_body": "Juptr"
        },
        {
            "close_approach_date": "2062-05-11",
            "close_approach_date_full": "2062-May-11 16:25",
            "epoch_date_close_approach": 2914590300000,
            "relative_velocity": {
                "kilometers_per_second": "3.4377373307",
                "kilometers_per_hour": "12375.8543904446",
                "miles_per_hour": "7689.874634996"
            },
            "miss_distance": {
                "astronomical": "1.3813026996",
                "lunar": "537.3267501444",
                "kilometers": "206639941.685409852",
                "miles": "128400105.7712938776"
            },
            "orbiting_body": "Juptr"
        }
    ],
    "orbital_data": {
        "orbit_id": "6",
        "orbit_determination_date": "2019-09-20 05:56:17",
        "first_observation_date": "2019-06-28",
        "last_observation_date": "2019-09-19",
        "data_arc_in_days": 83,
        "observations_used": 23,
        "orbit_uncertainty": "5",
        "minimum_orbit_intersection": ".145414",
        "jupiter_tisserand_invariant": "3.190",
        "epoch_osculation": "2459000.5",
        "eccentricity": ".5477705681688836",
        "semi_major_axis": "2.564337446223245",
        "inclination": "8.809935598257427",
        "ascending_node_longitude": "121.8120499041856",
        "orbital_period": "1499.896142823857",
        "perihelion_distance": "1.159668866328794",
        "perihelion_argument": "186.0151324913923",
        "aphelion_distance": "3.969006026117696",
        "perihelion_time": "2458699.829300945245",
        "mean_anomaly": "72.16596440865925",
        "mean_motion": ".2400166182988026",
        "equinox": "J2000",
        "orbit_class": {
            "orbit_class_type": "AMO",
            "orbit_class_description": "Near-Earth asteroid orbits similar to that of 1221 Amor",
            "orbit_class_range": "1.017 AU < q (perihelion) < 1.3 AU"
        }
    },
    "is_sentry_object": false
}